1 44915U 20001B   23113.18390953  .00028500  00000-0  19240-2 0  9997
2 44915  53.0568  27.0103 0000767 105.7985 254.3089 15.06409003181368
1 44915U 20001B   23113.38294702  .00036995  00000-0  24880-2 0  9997
2 44915  53.0566  26.1168 0000883 110.0230 250.0854 15.06422387181394
1 44915U 20001B   23114.17907378  .00126902  00000-0  83509-2 0  9996
2 44915  53.0562  22.5428 0000639 115.7133 244.3922 15.06557357181514
1 44915U 20001B   23114.17907378  .00126902  00000-0  83509-2 0  9996
2 44915  53.0562  22.5428 0000639 115.7133 244.3922 15.06557357181514
1 44915U 20001B   23115.04161503  .00058017  00000-0  38917-2 0  9999
2 44915  53.0555  18.6710 0001414  69.2965 290.8175 15.06306331181648
1 44915U 20001B   23115.24066755  .00043610  00000-0  29353-2 0  9991
2 44915  53.0549  17.7780 0001302  81.0557 279.0579 15.06314572181679
1 44915U 20001B   23115.24066755  .00043610  00000-0  29353-2 0  9991
2 44915  53.0549  17.7780 0001302  81.0557 279.0579 15.06314572181679
1 44915U 20001B   23115.70510066  .00023991  00000-0  16244-2 0  9996
2 44915  53.0545  15.6940 0001033  56.4687 303.6401 15.06390661181740
1 44915U 20001B   23116.03683378  .00024054  00000-0  16279-2 0  9999
2 44915  53.0546  14.2041 0001196  73.9843 286.1278 15.06406820181793
1 44915U 20001B   23116.70030441  .00010759  00000-0  74002-3 0  9996
2 44915  53.0546  11.2306 0001609  63.6728 296.4426 15.06403145181898
1 44915U 20001B   23116.96569192  .00006032  00000-0  42350-3 0  9994
2 44915  53.0555  10.0380 0001531  65.0428 295.0720 15.06401409181932
1 44915U 20001B   23118.09356309  .00018523  00000-0  12575-2 0  9997
2 44915  53.0553   4.9700 0001264  86.6010 273.5124 15.06449178182101
1 44915U 20001B   23118.09356309  .00018523  00000-0  12575-2 0  9997
2 44915  53.0553   4.9700 0001264  86.6010 273.5124 15.06449178182101
1 44915U 20001B   23118.62433917  .00000256  00000-0  36050-4 0  9997
2 44915  53.0547   2.5879 0001287  93.7939 266.3197 15.06416486182183
1 44915U 20001B   23118.95607312 -.00001033  00000-0 -50448-4 0  9998
2 44915  53.0551   1.0990 0001210 100.0638 260.0487 15.06403690182232
1 44915U 20001B   23118.95607312 -.00001033  00000-0 -50448-4 0  9998
2 44915  53.0551   1.0990 0001210 100.0638 260.0487 15.06403690182232
1 44915U 20001B   23119.95126925  .00018775  00000-0  12749-2 0  9994
2 44915  53.0563 356.6319 0001245 109.4379 250.6745 15.06430591182380
1 44915U 20001B   23119.95126925  .00018775  00000-0  12749-2 0  9994
2 44915  53.0563 356.6319 0001245 109.4379 250.6745 15.06430591182380
1 44915U 20001B   23120.88013117  .00006949  00000-0  48492-3 0  9991
2 44915  53.0554 352.4630 0001274 122.0649 238.0464 15.06402890182528
1 44915U 20001B   23120.94647876  .00000744  00000-0  68859-4 0  9990
2 44915  53.0548 352.1643 0001346 129.2378 230.8731 15.06393986182533
1 44915U 20001B   23120.94647876  .00000744  00000-0  68859-4 0  9990
2 44915  53.0548 352.1643 0001346 129.2378 230.8731 15.06393986182533
1 44915U 20001B   23121.87534234  .00013713  00000-0  93764-3 0  9998
2 44915  53.0548 347.9946 0001011  82.8146 277.2958 15.06402713182677
1 44915U 20001B   23122.00803264  .00012330  00000-0  84504-3 0  9992
2 44915  53.0544 347.3975 0001193 128.1614 231.9483 15.06406218182690
1 44915U 20001B   23122.00803264  .00012330  00000-0  84504-3 0  9992
2 44915  53.0544 347.3975 0001193 128.1614 231.9483 15.06406218182690
1 44915U 20001B   23122.80419715  .00005225  00000-0  36933-3 0  9992
2 44915  53.0549 343.8212 0001230 108.9154 251.1968 15.06404156182812
1 44915U 20001B   23122.87054517  .00001849  00000-0  14296-3 0  9990
2 44915  53.0546 343.5248 0001260  87.9525 272.1608 15.06400391182828
1 44915U 20001B   23123.33496718  .00005326  00000-0  37604-3 0  9997
2 44915  53.0549 341.4386 0001224 107.7116 252.4006 15.06410414182895
1 44915U 20001B   23123.79938276  .00007847  00000-0  54466-3 0  9992
2 44915  53.0547 339.3552 0001165  91.8601 268.2521 15.06429102182969
1 44915U 20001B   23123.86572772  .00008522  00000-0  58979-3 0  9999
2 44915  53.0547 339.0574 0001155  92.3689 267.7432 15.06431697182979
1 44915U 20001B   23123.93207381  .00010280  00000-0  70737-3 0  9998
2 44915  53.0546 338.7596 0001171  92.5751 267.5372 15.06433989182986
1 44915U 20001B   23124.86093434 -.00001659  00000-0 -92506-4 0  9994
2 44915  53.0540 334.5926 0000939  94.6871 265.4225 15.06402064183129
1 44915U 20001B   23124.92728132 -.00000113  00000-0  11264-4 0  9996
2 44915  53.0540 334.2950 0000878  92.1767 267.9323 15.06403154183130
1 44915U 20001B   23125.85613291  .00016981  00000-0  11554-2 0  9997
2 44915  53.0534 330.1244 0000982 105.4988 254.6110 15.06423230183272
1 44915U 20001B   23125.92247866  .00023554  00000-0  15935-2 0  9997
2 44915  53.0537 329.8261 0000990 105.5257 254.5841 15.06431559183282
1 44915U 20001B   23126.25421339  .00013380  00000-0  91489-3 0  9998
2 44915  53.0544 328.3369 0001582  84.6373 275.4797 15.06422179183333
1 44915U 20001B   23126.58594939  .00009265  00000-0  63984-3 0  9997
2 44915  53.0534 326.8476 0001695  81.7498 278.3683 15.06413681183384
1 44915U 20001B   23126.65229807  .00018689  00000-0  12704-2 0  9997
2 44915  53.0536 326.5499 0000713  92.7583 267.3487 15.06394260183397
1 44915U 20001B   23127.24942403  .00023397  00000-0  15844-2 0  9997
2 44915  53.0536 323.8688 0000781  74.9673 285.1403 15.06400632183481
1 44915U 20001B   23127.24942403  .00023397  00000-0  15844-2 0  9997
2 44915  53.0536 323.8688 0000781  74.9673 285.1403 15.06400632183481
1 44915U 20001B   23127.84653940  .00026379  00000-0  17819-2 0  9995
2 44915  53.0536 321.1882 0000775  71.6108 288.4965 15.06427683183572
1 44915U 20001B   23128.24462142  .00013028  00000-0  89171-3 0  9990
2 44915  53.0541 319.4017 0000709  77.6674 282.4395 15.06408081183638
1 44915U 20001B   23128.84175625  .00025566  00000-0  17299-2 0  9994
2 44915  53.0535 316.7207 0001050  81.7991 278.3117 15.06380729183724
1 44915U 20001B   23128.84175625  .00025566  00000-0  17299-2 0  9994
2 44915  53.0535 316.7207 0001050  81.7991 278.3117 15.06380729183724
1 44915U 20001B   23129.23983945  .00027900  00000-0  18845-2 0  9992
2 44915  53.0536 314.9333 0001074  82.6891 277.4220 15.06399873183781
1 44915U 20001B   23130.23503697  .00007578  00000-0  52704-3 0  9998
2 44915  53.0539 310.4676 0001082  74.5629 285.5480 15.06404412183934
1 44915U 20001B   23130.76581814  .00013322  00000-0  91197-3 0  9996
2 44915  53.0550 308.0830 0001200 102.7299 257.3824 15.06383495184017
1 44915U 20001B   23130.96485690  .00014069  00000-0  96140-3 0  9995
2 44915  53.0542 307.1886 0001084  97.0947 263.0165 15.06404533184047
1 44915U 20001B   23130.96485690  .00014069  00000-0  96140-3 0  9995
2 44915  53.0542 307.1886 0001084  97.0947 263.0165 15.06404533184047
1 44915U 20001B   23131.76100905  .00024750  00000-0  16729-2 0  9999
2 44915  53.0546 303.6161 0001019  96.7306 263.3799 15.06438215184164
1 44915U 20001B   23132.15909076  .00007050  00000-0  49152-3 0  9990
2 44915  53.0543 301.8296 0001155  94.9769 265.1352 15.06415661184226
1 44915U 20001B   23132.68987441  .00022762  00000-0  15428-2 0  9995
2 44915  53.0543 299.4460 0000921 117.7821 242.3262 15.06381373184302
1 44915U 20001B   23132.68987441  .00022762  00000-0  15428-2 0  9995
2 44915  53.0543 299.4460 0000921 117.7821 242.3262 15.06381373184302
1 44915U 20001B   23133.15430502  .00025101  00000-0  16980-2 0  9993
2 44915  53.0542 297.3610 0000940 111.5143 248.5946 15.06399928184374
1 44915U 20001B   23133.75141824  .00023186  00000-0  15691-2 0  9994
2 44915  53.0538 294.6811 0000871 120.6649 239.4426 15.06429650184465
1 44915U 20001B   23133.75141824  .00023186  00000-0  15691-2 0  9994
2 44915  53.0538 294.6811 0000871 120.6649 239.4426 15.06429650184465
1 44915U 20001B   23134.14950016  .00014864  00000-0  10143-2 0  9999
2 44915  53.0534 292.8949 0000788 112.9144 247.1928 15.06414091184527
1 44915U 20001B   23134.14950016  .00014864  00000-0  10143-2 0  9999
2 44915  53.0534 292.8949 0000788 112.9144 247.1928 15.06414091184527
1 44915U 20001B   23134.81297964  .00022593  00000-0  15314-2 0  9992
2 44915  53.0531 289.9153 0000986  95.6786 264.4316 15.06385871184624
1 44915U 20001B   23134.81297964  .00022593  00000-0  15314-2 0  9992
2 44915  53.0531 289.9153 0000986  95.6786 264.4316 15.06385871184624
1 44915U 20001B   23135.14471405  .00021221  00000-0  14392-2 0  9995
2 44915  53.0531 288.4258 0000965  97.2943 262.8155 15.06401104184670
1 44915U 20001B   23135.67548252  .00020786  00000-0  14093-2 0  9991
2 44915  53.0528 286.0431 0000930  92.6443 267.4653 15.06424587184752
1 44915U 20001B   23136.40530461  .00020007  00000-0  13581-2 0  9993
2 44915  53.0529 282.7663 0001158  80.1667 279.9452 15.06403454184863
1 44915U 20001B   23136.40530461  .00020007  00000-0  13581-2 0  9993
2 44915  53.0529 282.7663 0001158  80.1667 279.9452 15.06403454184863
1 44915U 20001B   23136.67069628  .00019554  00000-0  13287-2 0  9992
2 44915  53.0533 281.5751 0000890  46.3776 313.7287 15.06380292184902
1 44915U 20001B   23136.67069628  .00019554  00000-0  13287-2 0  9992
2 44915  53.0533 281.5751 0000890  46.3776 313.7287 15.06380292184902
1 44915U 20001B   23137.13512801  .00012586  00000-0  86253-3 0  9992
2 44915  53.0546 279.4858 0001151  90.4433 269.6687 15.06390410184974
1 44915U 20001B   23137.66589869  .00010069  00000-0  69376-3 0  9999
2 44915  53.0540 277.1043 0001023  65.3106 294.7990 15.06406977185057
1 44915U 20001B   23138.52841231  .00000170  00000-0  30323-4 0  9992
2 44915  53.0551 273.2335 0000812  65.8455 294.2619 15.06393128185187
1 44915U 20001B   23138.52841231  .00000170  00000-0  30323-4 0  9992
2 44915  53.0551 273.2335 0000812  65.8455 294.2619 15.06393128185187
1 44915U 20001B   23138.79380276  .00001441  00000-0  11561-3 0  9992
2 44915  53.0543 272.0425 0001086  53.4209 306.6880 15.06393239185225
1 44915U 20001B   23139.39092170  .00011752  00000-0  80633-3 0  9994
2 44915  53.0545 269.3628 0001110  48.6965 311.4119 15.06409311185312
